{
    "links": {
        "self": "http://www.neowsapp.com/rest/v1/neo/3838785?api_key=iIulBulltgU6a56xZRHN4H3l9WmuAYTsLGpBGhQ2"
    },
    "id": "3838785",
    "neo_reference_id": "3838785",
    "name": "(2019 CX5)",
    "designation": "2019 CX5",
    "nasa_jpl_url": "http://ssd.jpl.nasa.gov/sbdb.cgi?sstr=3838785",
    "absolute_magnitude_h": 22.5,
    "estimated_diameter": {
        "kilometers": {
            "estimated_diameter_min": 0.0840533402,
            "estimated_diameter_max": 0.1879489824
        },
        "meters": {
            "estimated_diameter_min": 84.0533402073,
            "estimated_diameter_max": 187.9489824394
        },
        "miles": {
            "estimated_diameter_min": 0.0522283081,
            "estimated_diameter_max": 0.1167860472
        },
        "feet": {
            "estimated_diameter_min": 275.7655606856,
            "estimated_diameter_max": 616.6305395464
        }
    },
    "is_potentially_hazardous_asteroid": false,
    "close_approach_data": [
        {
            "close_approach_date": "2003-02-19",
            "close_approach_date_full": "2003-Feb-19 09:59",
            "epoch_date_close_approach": 1045648740000,
            "relative_velocity": {
                "kilometers_per_second": "18.4630539232",
                "kilometers_per_hour": "66466.9941236017",
                "miles_per_hour": "41300.0053208569"
            },
            "miss_distance": {
                "astronomical": "0.2247104758",
                "lunar": "87.4123750862",
                "kilometers": "33616208.546366546",
                "miles": "20888143.3946324948"
            },
            "orbiting_body": "Earth"
        },
        {
            "close_approach_date": "2019-02-16",
            "close_approach_date_full": "2019-Feb-16 19:46",
            "epoch_date_close_approach": 1550346360000,
            "relative_velocity": {
                "kilometers_per_second": "17.7716919667",
                "kilometers_per_hour": "63978.0910800275",
                "miles_per_hour": "39753.4977602537"
            },
            "miss_distance": {
                "astronomical": "0.1909682542",
                "lunar": "74.2866508838",
                "kilometers": "28568444.065938554",
                "miles": "17751607.9895738852"
            },
            "orbiting_body": "Earth"
        },
        {
            "close_approach_date": "2026-02-23",
            "close_approach_date_full": "2026-Feb-23 11:19",
            "epoch_date_close_approach": 1771845540000,
            "relative_velocity": {
                "kilometers_per_second": "21.6219242223",
                "kilometers_per_hour": "77838.9272002004",
                "miles_per_hour": "48366.0822928134"
            },
            "miss_distance": {
                "astronomical": "0.4881112465",
                "lunar": "189.8752748885",
                "kilometers": "73020402.799444955",
                "miles": "45372774.336072179"
            },
            "orbiting_body": "Earth"
        }
    ],
    "orbital_data": {
        "orbit_id": "6",
        "orbit_determination_date": "2019-03-10 07:57:36",
        "first_observation_date": "2019-02-12",
        "last_observation_date": "2019-03-06",
        "data_arc_in_days": 22,
        "observations_used": 50,
        "orbit_uncertainty": "7",
        "minimum_orbit_intersection": ".165645",
        "jupiter_tisserand_invariant": "4.409",
        "epoch_osculation": "2459000.5",
        "eccentricity": ".2191073947653333",
        "semi_major_axis": "1.464815781156346",
        "inclination": "34.11090293896156",
        "ascending_node_longitude": "329.5574371280961",
        "orbital_period": "647.5494549172333",
        "perihelion_distance": "1.143863811536033",
        "perihelion_argument": "161.2755122364412",
        "aphelion_distance": "1.78576775077666",
        "perihelion_time": "2459154.509989630093",
        "mean_anomaly": "274.3793638527271",
        "mean_motion": ".5559420940999996",
        "equinox": "J2000",
        "orbit_class": {
            "orbit_class_type": "AMO",
            "orbit_class_description": "Near-Earth asteroid orbits similar to that of 1221 Amor",
            "orbit_class_range": "1.017 AU < q (perihelion) < 1.3 AU"
        }
    },
    "is_sentry_object": false
}